ONEWEB-0528             
1 54643U 22166B   23334.32298510  .00000102  00000+0  21433-3 0  9992
2 54643  87.9256  69.0851 0001503 106.7383 253.3915 13.21827861 49153
ONEWEB-0539             
1 54644U 22166C   23334.81342424  .00000216  00000+0  49110-3 0  9999
2 54644  87.9252  68.9874 0001823  86.7569 273.3774 13.21831595 49212
ONEWEB-0540             
1 54645U 22166D   23334.27803328  .00000155  00000+0  34416-3 0  9990
2 54645  87.9259  69.1203 0001512  92.4396 267.6911 13.21827233 49152
ONEWEB-0542             
1 54646U 22166E   23334.82288478 -.00000145  00000+0 -38377-3 0  9996
2 54646  87.9255  68.9858 0001860  84.0023 276.1322 13.21825753 49226
ONEWEB-0545             
1 54647U 22166F   23334.33559867  .00000089  00000+0  18430-3 0  9999
2 54647  87.9257  69.1237 0001478  74.9540 285.1757 13.21825100 49138
ONEWEB-0580             
1 54648U 22166G   23334.76296592  .00000334  00000+0  77748-3 0  9990
2 54648  87.9256  68.9923 0002140  84.6052 275.5326 13.21822119 49222
ONEWEB-0582             
1 54649U 22166H   23334.35138731  .00000055  00000+0  10056-3 0  9995
2 54649  87.9259  69.1154 0001618 102.5468 257.5847 13.21825995 49150
ONEWEB-0583             
1 54650U 22166J   23334.81657554  .00000061  00000+0  11655-3 0  9990
2 54650  87.9258  69.0284 0001622 117.9693 242.1605 13.21824805 49239
